STARLINK-34885          
1 65328U 25189F   25354.64185396  .00015730  00000+0  54203-3 0  9992
2 65328  53.1556 213.9562 0001556  86.3958 273.7221 15.30203045 18944
STARLINK-34908          
1 65329U 25189G   25354.63763164  .00017231  00000+0  59245-3 0  9996
2 65329  53.1557 213.9282 0001207  91.7185 268.3954 15.30204131 19008
STARLINK-34864          
1 65330U 25189H   25353.91283749  .00016440  00000+0  56609-3 0  9996
2 65330  53.1567 217.2271 0000405  83.5098 276.5949 15.30191524 18899
STARLINK-34918          
1 65331U 25189J   25354.56281795  .00013218  00000+0  45762-3 0  9996
2 65331  53.1562 214.1660 0001447 107.6834 252.4325 15.30199170 18937
STARLINK-33890          
1 65332U 25189K   25353.91072446  .00023388  00000+0  79938-3 0  9997
2 65332  53.1571 217.2050 0001112  92.6473 267.4655 15.30195891 17696
STARLINK-34602          
1 65333U 25189L   25354.61968911  .00014360  00000+0  49598-3 0  9996
2 65333  53.1576 213.8105 0001190  69.3569 290.7559 15.30201655 19003
STARLINK-34878          
1 65334U 25189M   25354.62391348  .00015720  00000+0  54171-3 0  9996
2 65334  53.1571 213.8438 0001460  87.8934 272.2234 15.30202676 19008
STARLINK-34874          
1 65335U 25189N   25354.60080948  .00009582  00000+0  33523-3 0  9993
2 65335  53.1583 214.4026 0001867  95.7378 264.3836 15.30200290 18990
STARLINK-34835          
1 65336U 25189P   25353.95082896  .00009295  00000+0  32561-3 0  9997
2 65336  53.1578 217.4640 0001477  78.6320 281.4846 15.30193819 18892
STARLINK-34854          
1 65337U 25189Q   25354.03818772  .00028271  00000+0  96246-3 0  9993
2 65337  53.1573 216.5853 0000576  80.8457 279.2609 15.30218933 18852
STARLINK-34751          
1 65338U 25189R   25353.91389336  .00014157  00000+0  48914-3 0  9996
2 65338  53.1569 217.2284 0001923  92.5592 267.5629 15.30202596 18895
STARLINK-34777          
1 65339U 25189S   25353.92866803  .00014976  00000+0  51640-3 0  9996
2 65339  53.1566 217.3240 0001597  96.6437 263.4745 15.30220382 18905
STARLINK-35020          
1 65340U 25189T   25354.61439756  .00010847  00000+0  37778-3 0  9997
2 65340  53.1580 213.7827 0001074  79.4200 280.6922 15.30203259 18958
STARLINK-35016          
1 65341U 25189U   25353.92655464  .00009301  00000+0  32580-3 0  9996
2 65341  53.1567 217.3067 0000826  90.8909 269.2186 15.30195319 18847
STARLINK-35092          
1 65342U 25189V   25354.61865484  .00014970  00000+0  51630-3 0  9994
2 65342  53.1568 213.8102 0001556  78.5070 281.6106 15.30213836 18916
STARLINK-34838          
1 65343U 25189W   25354.34377030  .00010244  00000+0  35748-3 0  9992
2 65343  53.1581 215.6411 0001484  83.1020 277.0150 15.30203257 18961
