[{"OBJECT_NAME":"STARLINK-34885","OBJECT_ID":"2025-189F","EPOCH":"2025-12-20T15:24:16.182144","MEAN_MOTION":15.30203045,"ECCENTRICITY":0.00015564,"INCLINATION":53.1556,"RA_OF_ASC_NODE":213.9562,"ARG_OF_PERICENTER":86.3958,"MEAN_ANOMALY":273.7221,"EPHEMERIS_TYPE":0,"CLASSIFICATION_TYPE":"U","NORAD_CAT_ID":65328,"ELEMENT_SET_NO":999,"REV_AT_EPOCH":1894,"BSTAR":0.00054203481,"MEAN_MOTION_DOT":0.0001573,"MEAN_MOTION_DDOT":0},{"OBJECT_NAME":"STARLINK-34908","OBJECT_ID":"2025-189G","EPOCH":"2025-12-20T15:18:11.373696","MEAN_MOTION":15.30204131,"ECCENTRICITY":0.00012076,"INCLINATION":53.1557,"RA_OF_ASC_NODE":213.9282,"ARG_OF_PERICENTER":91.7185,"MEAN_ANOMALY":268.3954,"EPHEMERIS_TYPE":0,"CLASSIFICATION_TYPE":"U","NORAD_CAT_ID":65329,"ELEMENT_SET_NO":999,"REV_AT_EPOCH":1900,"BSTAR":0.0005924514,"MEAN_MOTION_DOT":0.00017231,"MEAN_MOTION_DDOT":0},{"OBJECT_NAME":"STARLINK-34864","OBJECT_ID":"2025-189H","EPOCH":"2025-12-19T21:54:29.159136","MEAN_MOTION":15.30191524,"ECCENTRICITY":4.058e-5,"INCLINATION":53.1567,"RA_OF_ASC_NODE":217.2271,"ARG_OF_PERICENTER":83.5098,"MEAN_ANOMALY":276.5949,"EPHEMERIS_TYPE":0,"CLASSIFICATION_TYPE":"U","NORAD_CAT_ID":65330,"ELEMENT_SET_NO":999,"REV_AT_EPOCH":1889,"BSTAR":0.00056609095,"MEAN_MOTION_DOT":0.0001644,"MEAN_MOTION_DDOT":0},{"OBJECT_NAME":"STARLINK-34918","OBJECT_ID":"2025-189J","EPOCH":"2025-12-20T13:30:27.470880","MEAN_MOTION":15.3019917,"ECCENTRICITY":0.00014474,"INCLINATION":53.1562,"RA_OF_ASC_NODE":214.166,"ARG_OF_PERICENTER":107.6834,"MEAN_ANOMALY":252.4325,"EPHEMERIS_TYPE":0,"CLASSIFICATION_TYPE":"U","NORAD_CAT_ID":65331,"ELEMENT_SET_NO":999,"REV_AT_EPOCH":1893,"BSTAR":0.0004576184,"MEAN_MOTION_DOT":0.00013218,"MEAN_MOTION_DDOT":0},{"OBJECT_NAME":"STARLINK-33890","OBJECT_ID":"2025-189K","EPOCH":"2025-12-19T21:51:26.593344","MEAN_MOTION":15.30195891,"ECCENTRICITY":0.00011122,"INCLINATION":53.1571,"RA_OF_ASC_NODE":217.205,"ARG_OF_PERICENTER":92.6473,"MEAN_ANOMALY":267.4655,"EPHEMERIS_TYPE":0,"CLASSIFICATION_TYPE":"U","NORAD_CAT_ID":65332,"ELEMENT_SET_NO":999,"REV_AT_EPOCH":1769,"BSTAR":0.00079938369,"MEAN_MOTION_DOT":0.00023388,"MEAN_MOTION_DDOT":0},{"OBJECT_NAME":"STARLINK-34602","OBJECT_ID":"2025-189L","EPOCH":"2025-12-20T14:52:21.139104","MEAN_MOTION":15.30201655,"ECCENTRICITY":0.00011908,"INCLINATION":53.1576,"RA_OF_ASC_NODE":213.8105,"ARG_OF_PERICENTER":69.3569,"MEAN_ANOMALY":290.7559,"EPHEMERIS_TYPE":0,"CLASSIFICATION_TYPE":"U","NORAD_CAT_ID":65333,"ELEMENT_SET_NO":999,"REV_AT_EPOCH":1900,"BSTAR":0.00049598102,"MEAN_MOTION_DOT":0.0001436,"MEAN_MOTION_DDOT":0},{"OBJECT_NAME":"STARLINK-34878","OBJECT_ID":"2025-189M","EPOCH":"2025-12-20T14:58:26.124672","MEAN_MOTION":15.30202676,"ECCENTRICITY":0.00014607,"INCLINATION":53.1571,"RA_OF_ASC_NODE":213.8438,"ARG_OF_PERICENTER":87.8934,"MEAN_ANOMALY":272.2234,"EPHEMERIS_TYPE":0,"CLASSIFICATION_TYPE":"U","NORAD_CAT_ID":65334,"ELEMENT_SET_NO":999,"REV_AT_EPOCH":1900,"BSTAR":0.00054171208,"MEAN_MOTION_DOT":0.0001572,"MEAN_MOTION_DDOT":0},{"OBJECT_NAME":"STARLINK-34874","OBJECT_ID":"2025-189N","EPOCH":"2025-12-20T14:25:09.939072","MEAN_MOTION":15.3020029,"ECCENTRICITY":0.0001867,"INCLINATION":53.1583,"RA_OF_ASC_NODE":214.4026,"ARG_OF_PERICENTER":95.7378,"MEAN_ANOMALY":264.3836,"EPHEMERIS_TYPE":0,"CLASSIFICATION_TYPE":"U","NORAD_CAT_ID":65335,"ELEMENT_SET_NO":999,"REV_AT_EPOCH":1899,"BSTAR":0.00033523419,"MEAN_MOTION_DOT":9.582e-5,"MEAN_MOTION_DDOT":0},{"OBJECT_NAME":"STARLINK-34835","OBJECT_ID":"2025-189P","EPOCH":"2025-12-19T22:49:11.622144","MEAN_MOTION":15.30193819,"ECCENTRICITY":0.00014776,"INCLINATION":53.1578,"RA_OF_ASC_NODE":217.464,"ARG_OF_PERICENTER":78.632,"MEAN_ANOMALY":281.4846,"EPHEMERIS_TYPE":0,"CLASSIFICATION_TYPE":"U","NORAD_CAT_ID":65336,"ELEMENT_SET_NO":999,"REV_AT_EPOCH":1889,"BSTAR":0.00032561368,"MEAN_MOTION_DOT":9.295e-5,"MEAN_MOTION_DDOT":0},{"OBJECT_NAME":"STARLINK-34854","OBJECT_ID":"2025-189Q","EPOCH":"2025-12-20T00:54:59.419008","MEAN_MOTION":15.30218933,"ECCENTRICITY":5.764e-5,"INCLINATION":53.1573,"RA_OF_ASC_NODE":216.5853,"ARG_OF_PERICENTER":80.8457,"MEAN_ANOMALY":279.2609,"EPHEMERIS_TYPE":0,"CLASSIFICATION_TYPE":"U","NORAD_CAT_ID":65337,"ELEMENT_SET_NO":999,"REV_AT_EPOCH":1885,"BSTAR":0.00096246325,"MEAN_MOTION_DOT":0.00028271,"MEAN_MOTION_DDOT":0},{"OBJECT_NAME":"STARLINK-34751","OBJECT_ID":"2025-189R","EPOCH":"2025-12-19T21:56:00.386304","MEAN_MOTION":15.30202596,"ECCENTRICITY":0.00019234,"INCLINATION":53.1569,"RA_OF_ASC_NODE":217.2284,"ARG_OF_PERICENTER":92.5592,"MEAN_ANOMALY":267.5629,"EPHEMERIS_TYPE":0,"CLASSIFICATION_TYPE":"U","NORAD_CAT_ID":65338,"ELEMENT_SET_NO":999,"REV_AT_EPOCH":1889,"BSTAR":0.00048914496,"MEAN_MOTION_DOT":0.00014157,"MEAN_MOTION_DDOT":0},{"OBJECT_NAME":"STARLINK-34777","OBJECT_ID":"2025-189S","EPOCH":"2025-12-19T22:17:16.917792","MEAN_MOTION":15.30220382,"ECCENTRICITY":0.00015979,"INCLINATION":53.1566,"RA_OF_ASC_NODE":217.324,"ARG_OF_PERICENTER":96.6437,"MEAN_ANOMALY":263.4745,"EPHEMERIS_TYPE":0,"CLASSIFICATION_TYPE":"U","NORAD_CAT_ID":65339,"ELEMENT_SET_NO":999,"REV_AT_EPOCH":1890,"BSTAR":0.00051640498,"MEAN_MOTION_DOT":0.00014976,"MEAN_MOTION_DDOT":0},{"OBJECT_NAME":"STARLINK-35020","OBJECT_ID":"2025-189T","EPOCH":"2025-12-20T14:44:43.949184","MEAN_MOTION":15.30203259,"ECCENTRICITY":0.00010748,"INCLINATION":53.158,"RA_OF_ASC_NODE":213.7827,"ARG_OF_PERICENTER":79.42,"MEAN_ANOMALY":280.6922,"EPHEMERIS_TYPE":0,"CLASSIFICATION_TYPE":"U","NORAD_CAT_ID":65340,"ELEMENT_SET_NO":999,"REV_AT_EPOCH":1895,"BSTAR":0.00037778203,"MEAN_MOTION_DOT":0.00010847,"MEAN_MOTION_DDOT":0},{"OBJECT_NAME":"STARLINK-35016","OBJECT_ID":"2025-189U","EPOCH":"2025-12-19T22:14:14.320896","MEAN_MOTION":15.30195319,"ECCENTRICITY":8.26e-5,"INCLINATION":53.1567,"RA_OF_ASC_NODE":217.3067,"ARG_OF_PERICENTER":90.8909,"MEAN_ANOMALY":269.2186,"EPHEMERIS_TYPE":0,"CLASSIFICATION_TYPE":"U","NORAD_CAT_ID":65341,"ELEMENT_SET_NO":999,"REV_AT_EPOCH":1884,"BSTAR":0.00032580301,"MEAN_MOTION_DOT":9.301e-5,"MEAN_MOTION_DDOT":0},{"OBJECT_NAME":"STARLINK-35092","OBJECT_ID":"2025-189V","EPOCH":"2025-12-20T14:50:51.778176","MEAN_MOTION":15.30213836,"ECCENTRICITY":0.00015566,"INCLINATION":53.1568,"RA_OF_ASC_NODE":213.8102,"ARG_OF_PERICENTER":78.507,"MEAN_ANOMALY":281.6106,"EPHEMERIS_TYPE":0,"CLASSIFICATION_TYPE":"U","NORAD_CAT_ID":65342,"ELEMENT_SET_NO":999,"REV_AT_EPOCH":1891,"BSTAR":0.00051630371,"MEAN_MOTION_DOT":0.0001497,"MEAN_MOTION_DDOT":0},{"OBJECT_NAME":"STARLINK-34838","OBJECT_ID":"2025-189W","EPOCH":"2025-12-20T08:15:01.753920","MEAN_MOTION":15.30203257,"ECCENTRICITY":0.00014842,"INCLINATION":53.1581,"RA_OF_ASC_NODE":215.6411,"ARG_OF_PERICENTER":83.102,"MEAN_ANOMALY":277.015,"EPHEMERIS_TYPE":0,"CLASSIFICATION_TYPE":"U","NORAD_CAT_ID":65343,"ELEMENT_SET_NO":999,"REV_AT_EPOCH":1896,"BSTAR":0.00035748041,"MEAN_MOTION_DOT":0.00010244,"MEAN_MOTION_DDOT":0}]
